[{"OBJECT_NAME":"STARLINK-3967","OBJECT_ID":"2022-052AQ","EPOCH":"2026-03-09T20:05:21.088896","MEAN_MOTION":15.08845199,"ECCENTRICITY":0.00010801,"INCLINATION":53.2163,"RA_OF_ASC_NODE":268.4577,"ARG_OF_PERICENTER":130.5297,"MEAN_ANOMALY":229.579,"EPHEMERIS_TYPE":0,"CLASSIFICATION_TYPE":"U","NORAD_CAT_ID":52636,"ELEMENT_SET_NO":999,"REV_AT_EPOCH":21101,"BSTAR":-2.534744e-6,"MEAN_MOTION_DOT":-3.28e-6,"MEAN_MOTION_DDOT":0},{"OBJECT_NAME":"COSMOS 397 DEB","OBJECT_ID":"1971-015CL","EPOCH":"2026-03-09T09:22:46.507584","MEAN_MOTION":13.84977696,"ECCENTRICITY":0.05617651,"INCLINATION":65.8946,"RA_OF_ASC_NODE":104.3108,"ARG_OF_PERICENTER":166.7711,"MEAN_ANOMALY":194.8817,"EPHEMERIS_TYPE":0,"CLASSIFICATION_TYPE":"U","NORAD_CAT_ID":6844,"ELEMENT_SET_NO":999,"REV_AT_EPOCH":60675,"BSTAR":0.00073965621,"MEAN_MOTION_DOT":2.836e-5,"MEAN_MOTION_DDOT":0}]
